CCSDS_OMM_VERS = 2.0
CREATION_DATE  = 
ORIGINATOR     = 

OBJECT_NAME    = CORAL
OBJECT_ID      = 1998-067YA
CENTER_NAME    = EARTH
REF_FRAME      = TEME
TIME_SYSTEM    = UTC
MEAN_ELEMENT_THEORY = SGP/SGP4

EPOCH          = 2026-03-25T22:51:36.892512
MEAN_MOTION    = 15.57042812
ECCENTRICITY   = .00124224
INCLINATION    = 51.6306
RA_OF_ASC_NODE = 350.2572
ARG_OF_PERICENTER = 233.8083
MEAN_ANOMALY   = 126.1761

EPHEMERIS_TYPE = 0
CLASSIFICATION_TYPE = U
NORAD_CAT_ID   = 67684
ELEMENT_SET_NO = 999
REV_AT_EPOCH   = 732
BSTAR          = .10159369E-2
MEAN_MOTION_DOT = .75341E-3
MEAN_MOTION_DDOT = 0

CCSDS_OMM_VERS = 2.0
CREATION_DATE  = 
ORIGINATOR     = 

OBJECT_NAME    = GXIBA-1
OBJECT_ID      = 1998-067YB
CENTER_NAME    = EARTH
REF_FRAME      = TEME
TIME_SYSTEM    = UTC
MEAN_ELEMENT_THEORY = SGP/SGP4

EPOCH          = 2026-03-25T22:33:11.684448
MEAN_MOTION    = 15.53673849
ECCENTRICITY   = .00118605
INCLINATION    = 51.6317
RA_OF_ASC_NODE = 350.9209
ARG_OF_PERICENTER = 241.6165
MEAN_ANOMALY   = 118.3631

EPHEMERIS_TYPE = 0
CLASSIFICATION_TYPE = U
NORAD_CAT_ID   = 67685
ELEMENT_SET_NO = 999
REV_AT_EPOCH   = 731
BSTAR          = .62982035E-3
MEAN_MOTION_DOT = .40852E-3
MEAN_MOTION_DDOT = 0

CCSDS_OMM_VERS = 2.0
CREATION_DATE  = 
ORIGINATOR     = 

OBJECT_NAME    = UITMSAT-2
OBJECT_ID      = 1998-067YC
CENTER_NAME    = EARTH
REF_FRAME      = TEME
TIME_SYSTEM    = UTC
MEAN_ELEMENT_THEORY = SGP/SGP4

EPOCH          = 2026-03-25T22:14:36.272544
MEAN_MOTION    = 15.54556307
ECCENTRICITY   = .0008859
INCLINATION    = 51.6335
RA_OF_ASC_NODE = 350.8380
ARG_OF_PERICENTER = 213.2499
MEAN_ANOMALY   = 146.7936

EPHEMERIS_TYPE = 0
CLASSIFICATION_TYPE = U
NORAD_CAT_ID   = 67686
ELEMENT_SET_NO = 999
REV_AT_EPOCH   = 731
BSTAR          = .67773201E-3
MEAN_MOTION_DOT = .45416E-3
MEAN_MOTION_DDOT = 0

CCSDS_OMM_VERS = 2.0
CREATION_DATE  = 
ORIGINATOR     = 

OBJECT_NAME    = HMU-SAT2
OBJECT_ID      = 1998-067YD
CENTER_NAME    = EARTH
REF_FRAME      = TEME
TIME_SYSTEM    = UTC
MEAN_ELEMENT_THEORY = SGP/SGP4

EPOCH          = 2026-03-25T22:39:37.030176
MEAN_MOTION    = 15.53422632
ECCENTRICITY   = .00084532
INCLINATION    = 51.6327
RA_OF_ASC_NODE = 350.9537
ARG_OF_PERICENTER = 215.4559
MEAN_ANOMALY   = 144.5870

EPHEMERIS_TYPE = 0
CLASSIFICATION_TYPE = U
NORAD_CAT_ID   = 67687
ELEMENT_SET_NO = 999
REV_AT_EPOCH   = 723
BSTAR          = .62137039E-3
MEAN_MOTION_DOT = .39867E-3
MEAN_MOTION_DDOT = 0

CCSDS_OMM_VERS = 2.0
CREATION_DATE  = 
ORIGINATOR     = 

OBJECT_NAME    = LEOPARD
OBJECT_ID      = 1998-067YE
CENTER_NAME    = EARTH
REF_FRAME      = TEME
TIME_SYSTEM    = UTC
MEAN_ELEMENT_THEORY = SGP/SGP4

EPOCH          = 2026-03-25T22:23:05.136576
MEAN_MOTION    = 15.54154330
ECCENTRICITY   = .0008632
INCLINATION    = 51.6331
RA_OF_ASC_NODE = 350.8765
ARG_OF_PERICENTER = 213.0025
MEAN_ANOMALY   = 147.0428

EPHEMERIS_TYPE = 0
CLASSIFICATION_TYPE = U
NORAD_CAT_ID   = 67688
ELEMENT_SET_NO = 999
REV_AT_EPOCH   = 723
BSTAR          = .63246006E-3
MEAN_MOTION_DOT = .41704E-3
MEAN_MOTION_DDOT = 0

CCSDS_OMM_VERS = 2.0
CREATION_DATE  = 
ORIGINATOR     = 

OBJECT_NAME    = CREW DRAGON 12
OBJECT_ID      = 2026-031A
CENTER_NAME    = EARTH
REF_FRAME      = TEME
TIME_SYSTEM    = UTC
MEAN_ELEMENT_THEORY = SGP/SGP4

EPOCH          = 2026-03-25T20:11:46.935744
MEAN_MOTION    = 15.48540672
ECCENTRICITY   = .0006235
INCLINATION    = 51.6341
RA_OF_ASC_NODE = 352.5134
ARG_OF_PERICENTER = 232.7336
MEAN_ANOMALY   = 127.3084

EPHEMERIS_TYPE = 0
CLASSIFICATION_TYPE = U
NORAD_CAT_ID   = 67796
ELEMENT_SET_NO = 999
REV_AT_EPOCH   = 55877
BSTAR          = .22937548E-3
MEAN_MOTION_DOT = .12012E-3
MEAN_MOTION_DDOT = 0

CCSDS_OMM_VERS = 2.0
CREATION_DATE  = 
ORIGINATOR     = 

OBJECT_NAME    = PROGRESS-MS 33
OBJECT_ID      = 2026-058A
CENTER_NAME    = EARTH
REF_FRAME      = TEME
TIME_SYSTEM    = UTC
MEAN_ELEMENT_THEORY = SGP/SGP4

EPOCH          = 2026-03-25T20:11:46.935744
MEAN_MOTION    = 15.48540672
ECCENTRICITY   = .0006235
INCLINATION    = 51.6341
RA_OF_ASC_NODE = 352.5134
ARG_OF_PERICENTER = 232.7336
MEAN_ANOMALY   = 127.3084

EPHEMERIS_TYPE = 0
CLASSIFICATION_TYPE = U
NORAD_CAT_ID   = 68319
ELEMENT_SET_NO = 999
REV_AT_EPOCH   = 28
BSTAR          = .22937548E-3
MEAN_MOTION_DOT = .12012E-3
MEAN_MOTION_DDOT = 0

