CORAL                   
1 67684U 98067YA  26084.95251033  .00075341  00000+0  10159-2 0  9996
2 67684  51.6306 350.2572 0012422 233.8083 126.1761 15.57042812  7327
GXIBA-1                 
1 67685U 98067YB  26084.93971857  .00040852  00000+0  62982-3 0  9999
2 67685  51.6317 350.9209 0011860 241.6165 118.3631 15.53673849  7311
UITMSAT-2               
1 67686U 98067YC  26084.92680871  .00045416  00000+0  67773-3 0  9996
2 67686  51.6335 350.8380 0008859 213.2499 146.7936 15.54556307  7313
HMU-SAT2                
1 67687U 98067YD  26084.94417859  .00039867  00000+0  62137-3 0  9995
2 67687  51.6327 350.9537 0008453 215.4559 144.5870 15.53422632  7237
LEOPARD                 
1 67688U 98067YE  26084.93269834  .00041704  00000+0  63246-3 0  9998
2 67688  51.6331 350.8765 0008632 213.0025 147.0428 15.54154330  7231
CREW DRAGON 12          
1 67796U 26031A   26084.84151546  .00012012  00000+0  22938-3 0  9993
2 67796  51.6341 352.5134 0006235 232.7336 127.3084 15.48540672558771
PROGRESS-MS 33          
1 68319U 26058A   26084.84151546  .00012012  00000+0  22938-3 0  9994
2 68319  51.6341 352.5134 0006235 232.7336 127.3084 15.48540672   281
